[{"OBJECT_NAME":"STARLINK-1665","OBJECT_ID":"2020-062AH","EPOCH":"2026-03-10T00:00:02.999808","MEAN_MOTION":15.63814753,"ECCENTRICITY":0.00018219,"INCLINATION":53.043,"RA_OF_ASC_NODE":335.34,"ARG_OF_PERICENTER":283.6331,"MEAN_ANOMALY":290.7925,"EPHEMERIS_TYPE":0,"CLASSIFICATION_TYPE":"U","NORAD_CAT_ID":46356,"ELEMENT_SET_NO":999,"REV_AT_EPOCH":589,"BSTAR":0.0017153048,"MEAN_MOTION_DOT":0.0016659,"MEAN_MOTION_DDOT":0},{"OBJECT_NAME":"JILIN-1 GAOFEN 03D13","OBJECT_ID":"2022-019Y","EPOCH":"2026-03-09T22:29:05.103168","MEAN_MOTION":15.66086161,"ECCENTRICITY":0.00041625,"INCLINATION":97.3674,"RA_OF_ASC_NODE":159.1591,"ARG_OF_PERICENTER":171.5165,"MEAN_ANOMALY":188.6166,"EPHEMERIS_TYPE":0,"CLASSIFICATION_TYPE":"U","NORAD_CAT_ID":51846,"ELEMENT_SET_NO":999,"REV_AT_EPOCH":22427,"BSTAR":0.0010266873,"MEAN_MOTION_DOT":0.00106185,"MEAN_MOTION_DDOT":0}]
